[{"OBJECT_NAME":"STARLINK-32914","OBJECT_ID":"2025-037K","EPOCH":"2026-03-09T21:39:29.593440","MEAN_MOTION":14.98325111,"ECCENTRICITY":0.00022735,"INCLINATION":70.0068,"RA_OF_ASC_NODE":353.9263,"ARG_OF_PERICENTER":273.1481,"MEAN_ANOMALY":86.9418,"EPHEMERIS_TYPE":0,"CLASSIFICATION_TYPE":"U","NORAD_CAT_ID":63086,"ELEMENT_SET_NO":999,"REV_AT_EPOCH":5863,"BSTAR":0.00074045257,"MEAN_MOTION_DOT":8.752e-5,"MEAN_MOTION_DDOT":0},{"OBJECT_NAME":"UNISAT-2","OBJECT_ID":"2002-058D","EPOCH":"2026-03-09T21:26:58.912224","MEAN_MOTION":14.84095062,"ECCENTRICITY":0.00633056,"INCLINATION":64.5535,"RA_OF_ASC_NODE":329.2093,"ARG_OF_PERICENTER":269.3781,"MEAN_ANOMALY":90.0072,"EPHEMERIS_TYPE":0,"CLASSIFICATION_TYPE":"U","NORAD_CAT_ID":27608,"ELEMENT_SET_NO":999,"REV_AT_EPOCH":25205,"BSTAR":0.00017704747,"MEAN_MOTION_DOT":1.378e-5,"MEAN_MOTION_DDOT":0}]
